[{"OBJECT_NAME":"STARLINK-34284","OBJECT_ID":"2025-117K","EPOCH":"2026-03-09T21:50:02.114880","MEAN_MOTION":15.30215777,"ECCENTRICITY":0.00015448,"INCLINATION":53.1609,"RA_OF_ASC_NODE":38.2776,"ARG_OF_PERICENTER":79.1308,"MEAN_ANOMALY":280.9867,"EPHEMERIS_TYPE":0,"CLASSIFICATION_TYPE":"U","NORAD_CAT_ID":64212,"ELEMENT_SET_NO":999,"REV_AT_EPOCH":4456,"BSTAR":0.0013720202,"MEAN_MOTION_DOT":0.00040518,"MEAN_MOTION_DDOT":0},{"OBJECT_NAME":"TITAN 3C TRANSTAGE DEB","OBJECT_ID":"1965-082PT","EPOCH":"2026-03-09T13:23:41.116128","MEAN_MOTION":15.28908269,"ECCENTRICITY":0.00104371,"INCLINATION":32.0266,"RA_OF_ASC_NODE":255.1391,"ARG_OF_PERICENTER":172.8339,"MEAN_ANOMALY":187.2474,"EPHEMERIS_TYPE":0,"CLASSIFICATION_TYPE":"U","NORAD_CAT_ID":3462,"ELEMENT_SET_NO":999,"REV_AT_EPOCH":24824,"BSTAR":0.0004444037,"MEAN_MOTION_DOT":0.00012939,"MEAN_MOTION_DDOT":0}]
